[{"OBJECT_NAME":"STARLINK-31049","OBJECT_ID":"2023-192N","EPOCH":"2026-03-09T22:56:08.091744","MEAN_MOTION":15.30186381,"ECCENTRICITY":0.00012661,"INCLINATION":53.1615,"RA_OF_ASC_NODE":61.6761,"ARG_OF_PERICENTER":96.3479,"MEAN_ANOMALY":263.7666,"EPHEMERIS_TYPE":0,"CLASSIFICATION_TYPE":"U","NORAD_CAT_ID":58543,"ELEMENT_SET_NO":999,"REV_AT_EPOCH":12602,"BSTAR":3.008332e-5,"MEAN_MOTION_DOT":5.32e-6,"MEAN_MOTION_DDOT":0},{"OBJECT_NAME":"TRANSPORTER-1 OBJECT AA","OBJECT_ID":"2021-006AA","EPOCH":"2026-03-09T22:58:14.761920","MEAN_MOTION":15.29982294,"ECCENTRICITY":0.00086604,"INCLINATION":97.2381,"RA_OF_ASC_NODE":112.457,"ARG_OF_PERICENTER":185.709,"MEAN_ANOMALY":174.4054,"EPHEMERIS_TYPE":0,"CLASSIFICATION_TYPE":"U","NORAD_CAT_ID":47437,"ELEMENT_SET_NO":999,"REV_AT_EPOCH":28414,"BSTAR":0.0002197941,"MEAN_MOTION_DOT":6.312e-5,"MEAN_MOTION_DDOT":0}]
